*******************************************************************************
Ephemeris / PORT_LOGIN Sat Nov 26 22:38:45 2011 Pasadena, USA    / Horizons    
*******************************************************************************
Target body name: Earth (399)                     {source: DE405}
Center body name: Solar System Barycenter (0)     {source: DE405}
Center-site name: BODY CENTER
*******************************************************************************
Start time      : A.D. 2001-Jan-01 10:00:00.0000 CT 
Stop  time      : A.D. 2001-Jan-02 00:00:00.0000 CT 
Step-size       : 60 minutes
*******************************************************************************
Center geodetic : 0.00000000,0.00000000,0.0000000 {E-lon(deg),Lat(deg),Alt(km)}
Center cylindric: 0.00000000,0.00000000,0.0000000 {E-lon(deg),Dxy(km),Dz(km)}
Center radii    : (undefined)                                                  
Output units    : AU-D                                                         
Output format   : 03
Reference frame : ICRF/J2000.0                                                 
Output type     : GEOMETRIC cartesian states
Coordinate systm: Earth Mean Equator and Equinox of Reference Epoch            
*******************************************************************************
JDCT 
   X     Y     Z
   VX    VY    VZ
   LT    RG    RR
*******************************************************************************
$$SOE
2451910.916666667 = A.D. 2001-Jan-01 10:00:00.0000 (CT)
  -1.931589523137603E-01  8.808509699548445E-01  3.820649694452741E-01
  -1.715815484251996E-02 -3.094484940254541E-03 -1.341577301838133E-03
   5.656419089423547E-03  9.793786055487215E-01  7.749961109960274E-05
2451910.958333333 = A.D. 2001-Jan-01 11:00:00.0000 (CT)
  -1.938738231044022E-01  8.807217938027133E-01  3.820089665253298E-01
  -1.715564154355138E-02 -3.105970000167727E-03 -1.346562702889351E-03
   5.656437768134186E-03  9.793818396672141E-01  7.773813464361708E-05
2451911.000000000 = A.D. 2001-Jan-01 12:00:00.0000 (CT)
  -1.945885889786999E-01  8.805921391517086E-01  3.819527558994428E-01
  -1.715311885893128E-02 -3.117452884854062E-03 -1.351547186457584E-03
   5.656456504286716E-03  9.793850837314622E-01  7.797700765308895E-05
2451911.041666667 = A.D. 2001-Jan-01 13:00:00.0000 (CT)
  -1.953032495457008E-01  8.804620060926313E-01  3.818963376059210E-01
  -1.715058679423109E-02 -3.128933586321984E-03 -1.356530748715349E-03
   5.656475297965457E-03  9.793883377560643E-01  7.821623195611272E-05
2451911.083333333 = A.D. 2001-Jan-01 14:00:00.0000 (CT)
  -1.960178044146847E-01  8.803313947166150E-01  3.818397116832323E-01
  -1.714804535505316E-02 -3.140412096597265E-03 -1.361513385839760E-03
   5.656494149255164E-03  9.793916017556963E-01  7.845580938094046E-05
2451911.125000000 = A.D. 2001-Jan-01 15:00:00.0000 (CT)
  -1.967322531951657E-01  8.802003051151253E-01  3.817828781700032E-01
  -1.714549454703107E-02 -3.151888407723255E-03 -1.366495094012595E-03
   5.656513058241035E-03  9.793948757451092E-01  7.869574175590769E-05
2451911.166666667 = A.D. 2001-Jan-01 16:00:00.0000 (CT)
  -1.974465954968932E-01  8.800687373799587E-01  3.817258371050196E-01
  -1.714293437582986E-02 -3.163362511761137E-03 -1.371475869420378E-03
   5.656532025008707E-03  9.793981597391310E-01  7.893603090933791E-05
2451911.208333333 = A.D. 2001-Jan-01 17:00:00.0000 (CT)
  -1.981608309298532E-01  8.799366916032425E-01  3.816685885272261E-01
  -1.714036484714639E-02 -3.174834400790196E-03 -1.376455708254453E-03
   5.656551049644258E-03  9.794014537526655E-01  7.917667866944940E-05
2451911.250000000 = A.D. 2001-Jan-01 18:00:00.0000 (CT)
  -1.988749591042699E-01  8.798041678774334E-01  3.816111324757259E-01
  -1.713778596670959E-02 -3.186304066908101E-03 -1.381434606711076E-03
   5.656570132234208E-03  9.794047578006930E-01  7.941768686424234E-05
2451911.291666667 = A.D. 2001-Jan-01 19:00:00.0000 (CT)
  -1.995889796306069E-01  8.796711662953168E-01  3.815534689897804E-01
  -1.713519774028079E-02 -3.197771502231187E-03 -1.386412560991498E-03
   5.656589272865509E-03  9.794080718982691E-01  7.965905732139019E-05
2451911.333333333 = A.D. 2001-Jan-01 20:00:00.0000 (CT)
  -2.003028921195683E-01  8.795376869500067E-01  3.814955981088095E-01
  -1.713260017365397E-02 -3.209236698894763E-03 -1.391389567302057E-03
   5.656608471625563E-03  9.794113960605265E-01  7.990079186810081E-05
2451911.375000000 = A.D. 2001-Jan-01 21:00:00.0000 (CT)
  -2.010166961821006E-01  8.794037299349438E-01  3.814375198723908E-01
  -1.712999327265609E-02 -3.220699649053412E-03 -1.396365621854281E-03
   5.656627728602204E-03  9.794147303026736E-01  8.014289233099418E-05
2451911.416666667 = A.D. 2001-Jan-01 22:00:00.0000 (CT)
  -2.017303914293937E-01  8.792692953438956E-01  3.813792343202597E-01
  -1.712737704314739E-02 -3.232160344881323E-03 -1.401340720864985E-03
   5.656647043883708E-03  9.794180746399950E-01  8.038536053595036E-05
2451911.458333333 = A.D. 2001-Jan-01 23:00:00.0000 (CT)
  -2.024439774728821E-01  8.791343832709555E-01  3.813207414923093E-01
  -1.712475149102165E-02 -3.243618778572614E-03 -1.406314860556378E-03
   5.656666417558793E-03  9.794214290878512E-01  8.062819830795452E-05
2451911.500000000 = A.D. 2001-Jan-02 00:00:00.0000 (CT)
  -2.031574539242470E-01  8.789989938105414E-01  3.812620414285896E-01
  -1.712211662220653E-02 -3.255074942341683E-03 -1.411288037156178E-03
   5.656685849716610E-03  9.794247936616789E-01  8.087140747093535E-05
$$EOE
*******************************************************************************
Coordinate system description:

  Earth Mean Equator and Equinox of Reference Epoch

    Reference epoch: J2000.0
    xy-plane: plane of the Earth's mean equator at the reference epoch
    x-axis  : out along ascending node of instantaneous plane of the Earth's
              orbit and the Earth's mean equator at the reference epoch
    z-axis  : along the Earth mean north pole at the reference epoch

Symbol meaning [1 AU=149597870.691 km, 1 day=86400.0 s]:

    JDCT     Epoch Julian Date, Coordinate Time
      X      x-component of position vector (AU)                               
      Y      y-component of position vector (AU)                               
      Z      z-component of position vector (AU)                               
      VX     x-component of velocity vector (AU/day)                           
      VY     y-component of velocity vector (AU/day)                           
      VZ     z-component of velocity vector (AU/day)                           
      LT     One-way down-leg Newtonian light-time (day)                       
      RG     Range; distance from coordinate center (AU)                       
      RR     Range-rate; radial velocity wrt coord. center (AU/day)            

Geometric states/elements have no aberration corrections applied.

 Computations by ...
     Solar System Dynamics Group, Horizons On-Line Ephemeris System
     4800 Oak Grove Drive, Jet Propulsion Laboratory
     Pasadena, CA  91109   USA
     Information: http://ssd.jpl.nasa.gov/
     Connect    : telnet://ssd.jpl.nasa.gov:6775  (via browser)
                  telnet ssd.jpl.nasa.gov 6775    (via command-line)
     Author     : Jon.Giorgini@jpl.nasa.gov
*******************************************************************************
